{
  "norad_id": 67193,
  "name": "STARLINK-36279",
  "history": [
    {
      "epoch": "2026-04-15T07:55:47.558784Z",
      "apogee_km": 574.4532585289198,
      "perigee_km": 569.640117321358,
      "latitude_deg": -2.9736304067387894e-05,
      "longitude_deg": 119.60950267614314,
      "height_km": 574.5222674731498,
      "semi_major_axis_km": 6950.183687925139,
      "eccentricity": 0.00034626,
      "inclination_deg": 69.999,
      "raan_deg": 82.0517,
      "arg_perigee_deg": 268.8633,
      "mean_anomaly_deg": 91.2129,
      "mean_motion_rev_day": 14.98332976
    },
    {
      "epoch": "2026-04-16T06:21:40.340736Z",
      "apogee_km": 574.4483736868169,
      "perigee_km": 569.6221740598394,
      "latitude_deg": -2.9032054959519858e-05,
      "longitude_deg": 139.86175805321128,
      "height_km": 574.5268435218127,
      "semi_major_axis_km": 6950.172273873328,
      "eccentricity": 0.0003472,
      "inclination_deg": 69.9995,
      "raan_deg": 79.6951,
      "arg_perigee_deg": 268.4878,
      "mean_anomaly_deg": 91.5883,
      "mean_motion_rev_day": 14.98336667
    },
    {
      "epoch": "2026-04-17T04:47:33.101088Z",
      "apogee_km": 574.4042340412379,
      "perigee_km": 569.6579642463321,
      "latitude_deg": -5.0100849535735316e-05,
      "longitude_deg": 160.11339557409804,
      "height_km": 574.6057379332378,
      "semi_major_axis_km": 6950.168099143784,
      "eccentricity": 0.00034145,
      "inclination_deg": 70.0,
      "raan_deg": 77.3378,
      "arg_perigee_deg": 266.4545,
      "mean_anomaly_deg": 93.6223,
      "mean_motion_rev_day": 14.98338017
    },
    {
      "epoch": "2026-04-18T20:50:55.038048Z",
      "apogee_km": 574.6832250998286,
      "perigee_km": 569.4997446957923,
      "latitude_deg": -3.318077852261806e-05,
      "longitude_deg": -86.58414669013835,
      "height_km": 574.2290848232777,
      "semi_major_axis_km": 6950.228484897811,
      "eccentricity": 0.0003729,
      "inclination_deg": 70.003,
      "raan_deg": 73.1267,
      "arg_perigee_deg": 276.4396,
      "mean_anomaly_deg": 83.6338,
      "mean_motion_rev_day": 14.9831849
    },
    {
      "epoch": "2026-04-19T20:52:55.516800Z",
      "apogee_km": 573.8968747532144,
      "perigee_km": 570.1674139903434,
      "latitude_deg": -2.975734468556226e-05,
      "longitude_deg": -90.59606073582509,
      "height_km": 574.2597883439369,
      "semi_major_axis_km": 6950.169144371778,
      "eccentricity": 0.0002683,
      "inclination_deg": 70.0032,
      "raan_deg": 70.6038,
      "arg_perigee_deg": 276.1473,
      "mean_anomaly_deg": 83.938,
      "mean_motion_rev_day": 14.98337679
    },
    {
      "epoch": "2026-04-20T04:53:36.222144Z",
      "apogee_km": 574.0341178707286,
      "perigee_km": 570.1544987544285,
      "latitude_deg": 1.3276458890440429e-05,
      "longitude_deg": 148.0633359357248,
      "height_km": 574.7685102981008,
      "semi_major_axis_km": 6950.231308312578,
      "eccentricity": 0.0002791,
      "inclination_deg": 70.0024,
      "raan_deg": 69.7618,
      "arg_perigee_deg": 262.6909,
      "mean_anomaly_deg": 97.3933,
      "mean_motion_rev_day": 14.98317577
    }
  ]
}